LANDSAT 5               
1 14780U 84021A   09189.13764550 -.00000003  00000-0  95844-5 0  8452
2 14780  98.2433 256.4702 0003584  58.9542 301.2019 14.57093997348432
SPOT 2                  
1 20436U 90005A   09189.20082728  .00000170  00000-0  10000-3 0  5049
2 20436  98.6627 258.8362 0001408 113.0890 305.6268 14.20059019  8687
ERS-2                   
1 23560U 95021A   09189.15363395  .00000012  00000-0  20587-4 0  2504
2 23560  98.5539 264.0663 0001331  96.7999 263.3351 14.32243878743213
RADARSAT-1              
1 23710U 95059A   09189.14760913  .00000086  00000-0  50171-4 0  3771
2 23710  98.5761 195.6403 0001074  91.5453 356.9777 14.29989951713808
TOMS EP                 
1 23940U 96037A   09187.73770481  .00000021  00000-0  15811-4 0  1024
2 23940  98.0287  59.1648 0028718 296.6331  63.1932 14.52246965692266
MIDORI (ADEOS)          
1 24277U 96046A   09188.89363256 -.00000025  00000-0  65781-5 0  1021
2 24277  98.3640 152.6509 0000640 148.3094 211.8122 14.28598032671880
ORBVIEW 2 (SEASTAR)     
1 24883U 97037A   09188.29150735 -.00000009  00000-0  79996-5 0  8656
2 24883  98.3438 312.3136 0002185 119.8884 240.2540 14.59994362635379
IRS-1D                  
1 24971U 97057A   09189.16591370 -.00000011  00000-0  10787-4 0  4546
2 24971  98.2355 224.2621 0053266 231.3923 128.2485 14.32954816615837
TRMM                    
1 25063U 97074A   09188.13156233  .00001892  00000-0  27292-4 0  1069
2 25063  34.9648 206.5772 0000974 290.3522  69.7127 15.55757257663202
SPOT 4                  
1 25260U 98017A   09189.19344139  .00000075  00000-0  55668-4 0  2664
2 25260  98.6972 261.6678 0001372 122.6234 314.9256 14.20044711585313
FASAT B                 
1 25395U 98043B   09188.56541409  .00000035  00000-0  32676-4 0  4933
2 25395  98.3340 218.6285 0003266 130.0826 230.0647 14.24353154571346
TECHSAT 1B (GO-32)      
1 25397U 98043D   09188.74266866  .00000142  00000-0  80766-4 0  9348
2 25397  98.3262 209.9814 0001507 148.3769 211.7514 14.23161345571051
LANDSAT 7               
1 25682U 99020A   09189.10443395 -.00000035  00000-0  21852-5 0  9373
2 25682  98.2068 256.8235 0001174 109.8647 250.2683 14.57115555544128
KITSAT 3                
1 25756U 99029A   09188.55468473 -.00000020  00000-0  70754-5 0  9500
2 25756  98.6635  22.0278 0014783 109.5047 250.7743 14.52539386536114
DLR-TUBSAT              
1 25757U 99029B   09189.10909031 -.00000034  00000-0  36556-5 0  9320
2 25757  98.6849  13.2508 0015166 134.2605 225.9829 14.50843706535740
IRS-P4 (OCEANSAT 1)     
1 25758U 99029C   09188.27124775  .00000105  00000-0  37753-4 0  1916
2 25758  98.2766 282.9259 0000755 106.5344 253.5919 14.50857347535779
QUIKSCAT                
1 25789U 99034A   09188.36246411 -.00000019  00000-0  10146-4 0  4698
2 25789  98.6339  17.2390 0000580 110.1540 249.9701 14.26788104523337
IKONOS 2                
1 25919U 99051A   09189.18137502  .00000028  00000-0  14164-4 0   603
2 25919  98.1049 264.1362 0001545  76.5778 283.5623 14.64449315523132
CBERS 1 (ZY 1A)         
1 25940U 99057A   09189.13729085 -.00000010  00000-0  10714-4 0  9519
2 25940  98.1543 193.3416 0005798  33.5268 326.6291 14.34454475509818
TERRA                   
1 25994U 99068A   09189.19209055  .00000054  00000-0  22091-4 0  8467
2 25994  98.2009 263.8690 0001008  74.3210 285.8109 14.57128772508212
ARIRANG 1 (KOMPSAT-1)   
1 26032U 99070A   09189.11816067  .00000125  00000-0  31474-4 0    10
2 26032  97.9194  69.0350 0005404 155.5831 204.5634 14.65613091510554
EO-1                    
1 26619U 00075A   09189.10828274  .00000597  00000-0  12833-3 0  2168
2 26619  98.1443 256.1943 0008990 237.8247 122.2117 14.62027270459324
SAC C                   
1 26620U 00075B   09188.24909169  .00000135  00000-0  39831-4 0  7607
2 26620  97.9084 219.9850 0001030  77.5218 282.6127 14.56574534458596
EROS A1                 
1 26631U 00079A   09189.15597802  .00000821  00000-0  43665-4 0  9694
2 26631  97.4871 254.2290 0007439 274.5270 137.5906 15.18050666477704
QUICKBIRD 2             
1 26953U 01047A   09189.12371723  .00001456  00000-0  38573-4 0  2483
2 26953  97.1466 265.2592 0002090 111.1350 307.8144 15.39940815433837
TES                     
1 26957U 01049A   09189.09747055 -.00000489  00000-0 -33534-4 0  2502
2 26957  97.5864 266.4163 0023454 107.8565 252.5219 15.00945284422347
JASON 1                 
1 26997U 01055A   09187.89088677 -.00000038  00000-0  10000-3 0   517
2 26997  66.0438  29.5600 0007217 264.0494  95.9718 12.80931011354568
METEOR-3M               
1 27001U 01056A   09189.22745228 -.00000042  00000-0  29236-6 0  4474
2 27001  99.2597  43.9119 0013730 345.9377  14.1385 13.68712296378399
BADR-B                  
1 27003U 01056C   09188.03815889  .00000116  00000-0  17993-3 0  3132
2 27003  99.2467  49.0862 0021544 350.6779   9.3964 13.70102060378675
MAROC-TUBSAT            
1 27004U 01056D   09188.82199607  .00000023  00000-0  74373-4 0  3271
2 27004  99.2466  49.1719 0020654 349.4961  10.5750 13.70028573378759
ENVISAT                 
1 27386U 02009A   09189.13188786  .00000001  00000-0  16545-4 0  1208
2 27386  98.5461 256.2149 0001010  90.8313 269.2997 14.32250105384491
SPOT 5                  
1 27421U 02021A   09189.16020109  .00000004  00000-0  22542-4 0  1936
2 27421  98.7733 261.9123 0000896  73.9019 286.2274 14.20004969372144
AQUA                    
1 27424U 02022A   09188.25277390  .00000127  00000-0  38133-4 0  3622
2 27424  98.1779 130.2047 0001971  77.9530 282.1911 14.57130703381689
HAIYANG-1A              
1 27430U 02024A   09188.22237370  .00000005  00000-0  18613-4 0  1019
2 27430  98.4818 253.8141 0009724  24.1852 335.9782 14.29707370372935
ALSAT 1                 
1 27559U 02054A   09189.10187641  .00000015  00000-0  10752-4 0  5120
2 27559  97.9395  63.3848 0022282 291.8928  67.9917 14.69323891352790
MIDORI II (ADEOS-II)    
1 27597U 02056A   09188.76388400  .00000095  00000-0  57379-4 0  8971
2 27597  98.4734 252.6036 0000494 140.7279 219.3939 14.26169944341727
ICESAT                  
1 27642U 03002A   09188.57978903  .00000119  00000-0  13364-4 0  2669
2 27642  94.0008 303.1528 0002518  99.9789 260.1721 14.90874011352704
ORBVIEW 3               
1 27838U 03030A   09189.10935510  .00001356  00000-0  35096-4 0  7872
2 27838  97.0563 247.1681 0001800  67.8993  17.9477 15.40749644338621
IRS-P6 (RESOURCESAT-1)  
1 28051U 03046A   09189.22669150  .00000012  00000-0  25562-4 0  7554
2 28051  98.7131 264.8201 0003175  86.7947 273.3593 14.21631644297100
CBERS 2 (ZY 1B)         
1 28057U 03049A   09189.13531310 -.00000010  00000-0  11033-4 0  5419
2 28057  98.2811 240.4202 0000505 325.3220  34.7943 14.34909321299404
TANSUO 1                
1 28220U 04012A   09188.15070377  .00000329  00000-0  40695-4 0  2486
2 28220  97.4925 224.5379 0012671 123.0979 237.1453 14.88668572283386
FORMOSAT-2 (ROCSAT 2)   
1 28254U 04018A   09189.19877010  .00000107  00000-0  10000-3 0  8300
2 28254  98.8557 248.3609 0002230 166.1584 269.7185 14.00819380262467
AURA                    
1 28376U 04026A   09188.32699597 -.00000051  00000-0 -13036-5 0  5424
2 28376  98.1749 132.4120 0001719  80.3589 279.7807 14.57126536264743
PARASOL                 
1 28498U 04049G   09189.07830394 -.00000007  00000-0  86929-5 0  4586
2 28498  98.2715 131.8693 0001107  81.9050 278.2282 14.57138066242121
IRS-P5 (CARTOSAT-1)     
1 28649U 05017A   09189.13264198 -.00000676  00000-0 -77415-4 0  7259
2 28649  97.8660 261.8109 0001599  57.8541 302.2846 14.82652587225965
TOPSAT                  
1 28891U 05043B   09189.14398236  .00000065  00000-0  23221-4 0  1552
2 28891  98.0491  78.3906 0015966 283.9221  76.0212 14.59766708196926
SINAH 1                 
1 28893U 05043D   09189.11494009 -.00000018  00000-0  58529-5 0   879
2 28893  98.0531  79.2926 0014620 284.3186  75.6393 14.60077104196962
ALOS (DAICHI)           
1 28931U 06002A   09189.19100215  .00009074  00000-0  19160-2 0  8906
2 28931  98.1900 264.0504 0001825 106.9352 253.2150 14.59580325183962
EROS B                  
1 29079U 06014A   09189.16811502  .00000393  00000-0  22709-4 0  6232
2 29079  97.3997 309.7903 0009821 348.8166 132.3221 15.17832019177703
RSS-1 (YAOGAN 1)        
1 29092U 06015A   09189.11179151  .00000028  00000-0  10335-4 0  5876
2 29092  97.8376 182.7948 0002036  80.5000 279.6441 14.80313979172869
RESURS-DK 1             
1 29228U 06021A   09189.10391181  .00001319  00000-0  31817-4 0  4569
2 29228  69.9330 316.2279 0160278 139.3040 222.0246 15.32374261171538
ARIRANG 2 (KOMPSAT-2)   
1 29268U 06031A   09189.12315543  .00000010  00000-0  11131-4 0  2892
2 29268  98.0383  81.1757 0019317  80.7808 279.5587 14.61714503157144
LAPAN-TUBSAT            
1 29709U 07001A   09189.08873168 -.00000031  00000-0  26246-5 0  7632
2 29709  97.8115 244.1458 0012514 211.7714 148.2752 14.80256205134576
CARTOSAT-2 (IRS-P7)     
1 29710U 07001B   09189.09437442  .00000045  00000-0  13011-4 0  7657
2 29710  97.8807 249.2091 0001412  28.6358 331.4936 14.78668699134479
HAIYANG-1B              
1 31113U 07010A   09189.14890571 -.00000011  00000-0  12719-4 0  5060
2 31113  98.5445 262.3578 0013889   9.0161 351.1276 14.29426741116930
COSMO-SKYMED 1          
1 31598U 07023A   09189.12430768  .00000028  00000-0  99952-5 0  3337
2 31598  97.8648  17.5379 0001327  78.1389 281.9958 14.82166587112724
TERRASAR-X              
1 31698U 07026A   09189.14265878  .00000055  00000-0  58008-5 0  3013
2 31698  97.4440 196.2537 0001669  85.1780 340.2689 15.19151870114456
WORLDVIEW-1 (WV-1)      
1 32060U 07041A   09189.15609796  .00000313  00000-0  15635-4 0   175
2 32060  97.4302 266.4387 0002271  83.0130   1.8374 15.24427992100280
CBERS 2B                
1 32062U 07042A   09189.15034423  .00000012  00000-0  18167-4 0   176
2 32062  98.4834 264.9702 0026036 288.0283  71.8081 14.38430966 94427
